STARLINK-4170           
1 53140U 22083J   26068.59739688 -.00000013  00000+0  17258-4 0  9996
2 53140  53.2177 174.5364 0001234  95.0222 265.0911 15.08832033201202
2023-069B               
1 56732U 23069B   26068.54706144  .00006772  00000+0  42420-3 0  9992
2 56732  41.0081 274.4606 0011652 279.7432  80.2064 15.09579619155167
